[
    {
        "Altitude(m)": 610399.5011338174,
        "Argument of Periapsis(deg)": 0.0,
        "Eccentricity": 0.0,
        "Inclination(deg)": 60.0,
        "Latitude(deg)": 52.111258514445375,
        "Longitude(deg)": -92.41568705888659,
        "Mean Anomaly(deg)": -294.5455,
        "RAAN(deg)": 320.0,
        "Satellite Name": "Test1 1412",
        "Satellite Number": 1412,
        "Semi-Major Axis(m)": 6980739.136638005,
        "Time(s)": 0
    },
    {
        "Altitude(m)": 610481.6522847739,
        "Argument of Periapsis(deg)": 0.00010418945913296404,
        "Eccentricity": 0.0,
        "Inclination(deg)": 60.0,
        "Latitude(deg)": 52.47086070503475,
        "Longitude(deg)": -91.63355209865438,
        "Mean Anomaly(deg)": -293.9253938545382,
        "RAAN(deg)": 319.9995799508602,
        "Satellite Name": "Test1 1412",
        "Satellite Number": 1412,
        "Semi-Major Axis(m)": 6980739.136638005,
        "Time(s)": 10
    },
    {
        "Altitude(m)": 610562.3422587144,
        "Argument of Periapsis(deg)": 0.0002083789182659281,
        "Eccentricity": 0.0,
        "Inclination(deg)": 60.0,
        "Latitude(deg)": 52.82461550564385,
        "Longitude(deg)": -90.83800418949912,
        "Mean Anomaly(deg)": -293.30528770907637,
        "RAAN(deg)": 319.9991599017205,
        "Satellite Name": "Test1 1412",
        "Satellite Number": 1412,
        "Semi-Major Axis(m)": 6980739.136638005,
        "Time(s)": 20
    },
    {
        "Altitude(m)": 610641.5235896521,
        "Argument of Periapsis(deg)": 0.00031256837739889213,
        "Eccentricity": 0.0,
        "Inclination(deg)": 60.0,
        "Latitude(deg)": 53.17235338999084,
        "Longitude(deg)": -90.0288788217462,
        "Mean Anomaly(deg)": -292.6851815636145,
        "RAAN(deg)": 319.9987398525808,
        "Satellite Name": "Test1 1412",
        "Satellite Number": 1412,
        "Semi-Major Axis(m)": 6980739.136638005,
        "Time(s)": 30
    },
    {
        "Altitude(m)": 610719.1497680594,
        "Argument of Periapsis(deg)": 0.0004167578365318562,
        "Eccentricity": 0.0,
        "Inclination(deg)": 60.0,
        "Latitude(deg)": 53.513901355904146,
        "Longitude(deg)": -89.20602309813087,
        "Mean Anomaly(deg)": -292.0650754181527,
        "RAAN(deg)": 319.998319803441,
        "Satellite Name": "Test1 1412",
        "Satellite Number": 1412,
        "Semi-Major Axis(m)": 6980739.136638005,
        "Time(s)": 40
    },
    {
        "Altitude(m)": 610795.175263174,
        "Argument of Periapsis(deg)": 0.0005209472956648203,
        "Eccentricity": 0.0,
        "Inclination(deg)": 60.0,
        "Latitude(deg)": 53.84908304728645,
        "Longitude(deg)": -88.3692981479689,
        "Mean Anomaly(deg)": -291.44496927269086,
        "RAAN(deg)": 319.9978997543013,
        "Satellite Name": "Test1 1412",
        "Satellite Number": 1412,
        "Semi-Major Axis(m)": 6980739.136638005,
        "Time(s)": 50
    },
    {
        "Altitude(m)": 610869.555544854,
        "Argument of Periapsis(deg)": 0.0006251367547977843,
        "Eccentricity": 0.0,
        "Inclination(deg)": 60.0,
        "Latitude(deg)": 54.17771890040293,
        "Longitude(deg)": -87.51858009410245,
        "Mean Anomaly(deg)": -290.82486312722904,
        "RAAN(deg)": 319.99747970516154,
        "Satellite Name": "Test1 1412",
        "Satellite Number": 1412,
        "Semi-Major Axis(m)": 6980739.136638005,
        "Time(s)": 60
    },
    {
        "Altitude(m)": 610942.247104891,
        "Argument of Periapsis(deg)": 0.0007293262139307483,
        "Eccentricity": 0.0,
        "Inclination(deg)": 60.0,
        "Latitude(deg)": 54.49962631615813,
        "Longitude(deg)": -86.65376108118289,
        "Mean Anomaly(deg)": -290.2047569817672,
        "RAAN(deg)": 319.9970596560218,
        "Satellite Name": "Test1 1412",
        "Satellite Number": 1412,
        "Semi-Major Axis(m)": 6980739.136638005,
        "Time(s)": 70
    },
    {
        "Altitude(m)": 611013.2074778326,
        "Argument of Periapsis(deg)": 0.0008335156730637124,
        "Eccentricity": 0.0,
        "Inclination(deg)": 60.0,
        "Latitude(deg)": 54.81461985998642,
        "Longitude(deg)": -85.7747518725467,
        "Mean Anomaly(deg)": -289.58465083630534,
        "RAAN(deg)": 319.99663960688207,
        "Satellite Name": "Test1 1412",
        "Satellite Number": 1412,
        "Semi-Major Axis(m)": 6980739.136638005,
        "Time(s)": 80
    },
    {
        "Altitude(m)": 611082.3952612844,
        "Argument of Periapsis(deg)": 0.0009377051321966765,
        "Eccentricity": 0.0,
        "Inclination(deg)": 60.0,
        "Latitude(deg)": 55.122511490914235,
        "Longitude(deg)": -84.88148298289738,
        "Mean Anomaly(deg)": -288.9645446908435,
        "RAAN(deg)": 319.9962195577423,
        "Satellite Name": "Test1 1412",
        "Satellite Number": 1412,
        "Semi-Major Axis(m)": 6980739.136638005,
        "Time(s)": 90
    },
    {
        "Altitude(m)": 611149.7701356974,
        "Argument of Periapsis(deg)": 0.0010418945913296407,
        "Eccentricity": 0.0,
        "Inclination(deg)": 60.0,
        "Latitude(deg)": 55.42311082125476,
        "Longitude(deg)": -83.97390585107539,
        "Mean Anomaly(deg)": -288.3444385453817,
        "RAAN(deg)": 319.99579950860254,
        "Satellite Name": "Test1 1412",
        "Satellite Number": 1412,
        "Semi-Major Axis(m)": 6980739.136638005,
        "Time(s)": 100
    },
    {
        "Altitude(m)": 611215.2928836017,
        "Argument of Periapsis(deg)": 0.0011460840504626045,
        "Eccentricity": 0.0,
        "Inclination(deg)": 60.0,
        "Latitude(deg)": 55.716225408263504,
        "Longitude(deg)": -83.05199555556028,
        "Mean Anomaly(deg)": -287.7243323999199,
        "RAAN(deg)": 319.99537945946287,
        "Satellite Name": "Test1 1412",
        "Satellite Number": 1412,
        "Semi-Major Axis(m)": 6980739.136638005,
        "Time(s)": 110
    },
    {
        "Altitude(m)": 611278.9254083182,
        "Argument of Periapsis(deg)": 0.0012502735095955685,
        "Eccentricity": 0.0,
        "Inclination(deg)": 60.0,
        "Latitude(deg)": 56.00166107891301,
        "Longitude(deg)": -82.11575203501836,
        "Mean Anomaly(deg)": -287.104226254458,
        "RAAN(deg)": 319.9949594103231,
        "Satellite Name": "Test1 1412",
        "Satellite Number": 1412,
        "Semi-Major Axis(m)": 6980739.136638005,
        "Time(s)": 120
    },
    {
        "Altitude(m)": 611340.6307520982,
        "Argument of Periapsis(deg)": 0.0013544629687285324,
        "Eccentricity": 0.0,
        "Inclination(deg)": 60.0,
        "Latitude(deg)": 56.27922228873472,
        "Longitude(deg)": -81.1652013130432,
        "Mean Anomaly(deg)": -286.4841201089962,
        "RAAN(deg)": 319.99453936118334,
        "Satellite Name": "Test1 1412",
        "Satellite Number": 1412,
        "Semi-Major Axis(m)": 6980739.136638005,
        "Time(s)": 130
    },
    {
        "Altitude(m)": 611400.3731137529,
        "Argument of Periapsis(deg)": 0.0014586524278614966,
        "Eccentricity": 0.0,
        "Inclination(deg)": 60.0,
        "Latitude(deg)": 56.5487125154211,
        "Longitude(deg)": -80.20039822443735,
        "Mean Anomaly(deg)": -285.8640139635344,
        "RAAN(deg)": 319.9941193120436,
        "Satellite Name": "Test1 1412",
        "Satellite Number": 1412,
        "Semi-Major Axis(m)": 6980739.136638005,
        "Time(s)": 140
    },
    {
        "Altitude(m)": 611458.1178656361,
        "Argument of Periapsis(deg)": 0.0015628418869944607,
        "Eccentricity": 0.0,
        "Inclination(deg)": 60.0,
        "Latitude(deg)": 56.80993468758439,
        "Longitude(deg)": -79.22142759997755,
        "Mean Anomaly(deg)": -285.24390781807256,
        "RAAN(deg)": 319.9936992629039,
        "Satellite Name": "Test1 1412",
        "Satellite Number": 1412,
        "Semi-Major Axis(m)": 6980739.136638005,
        "Time(s)": 150
    },
    {
        "Altitude(m)": 611513.831570154,
        "Argument of Periapsis(deg)": 0.0016670313461274247,
        "Eccentricity": 0.0,
        "Inclination(deg)": 60.0,
        "Latitude(deg)": 57.06269164872209,
        "Longitude(deg)": -78.22840540348129,
        "Mean Anomaly(deg)": -284.62380167261074,
        "RAAN(deg)": 319.99327921376414,
        "Satellite Name": "Test1 1412",
        "Satellite Number": 1412,
        "Semi-Major Axis(m)": 6980739.136638005,
        "Time(s)": 160
    },
    {
        "Altitude(m)": 611567.481995625,
        "Argument of Periapsis(deg)": 0.0017712208052603888,
        "Eccentricity": 0.0,
        "Inclination(deg)": 60.0,
        "Latitude(deg)": 57.3067866560506,
        "Longitude(deg)": -77.22148131334563,
        "Mean Anomaly(deg)": -284.00369552714886,
        "RAAN(deg)": 319.99285916462435,
        "Satellite Name": "Test1 1412",
        "Satellite Number": 1412,
        "Semi-Major Axis(m)": 6980739.136638005,
        "Time(s)": 170
    },
    {
        "Altitude(m)": 611619.0381315994,
        "Argument of Periapsis(deg)": 0.001875410264393353,
        "Eccentricity": 0.0,
        "Inclination(deg)": 60.0,
        "Latitude(deg)": 57.54202391343361,
        "Longitude(deg)": -76.20083970064702,
        "Mean Anomaly(deg)": -283.3835893816871,
        "RAAN(deg)": 319.9924391154846,
        "Satellite Name": "Test1 1412",
        "Satellite Number": 1412,
        "Semi-Major Axis(m)": 6980739.136638005,
        "Time(s)": 180
    },
    {
        "Altitude(m)": 611668.4702035484,
        "Argument of Periapsis(deg)": 0.0019795997235263173,
        "Eccentricity": 0.0,
        "Inclination(deg)": 60.0,
        "Latitude(deg)": 57.76820913715666,
        "Longitude(deg)": -75.16670049321938,
        "Mean Anomaly(deg)": -282.7634832362252,
        "RAAN(deg)": 319.99201906634494,
        "Satellite Name": "Test1 1412",
        "Satellite Number": 1412,
        "Semi-Major Axis(m)": 6980739.136638005,
        "Time(s)": 190
    }
]